[{"OBJECT_NAME":"STARLINK-3350","OBJECT_ID":"2022-005B","EPOCH":"2026-03-09T21:53:58.799904","MEAN_MOTION":15.08834659,"ECCENTRICITY":0.00011869,"INCLINATION":53.217,"RA_OF_ASC_NODE":288.1219,"ARG_OF_PERICENTER":89.521,"MEAN_ANOMALY":270.5918,"EPHEMERIS_TYPE":0,"CLASSIFICATION_TYPE":"U","NORAD_CAT_ID":51105,"ELEMENT_SET_NO":999,"REV_AT_EPOCH":22891,"BSTAR":0.00017716274,"MEAN_MOTION_DOT":2.532e-5,"MEAN_MOTION_DDOT":0},{"OBJECT_NAME":"CZ-4B DEB","OBJECT_ID":"2008-053M","EPOCH":"2026-03-05T07:18:48.921696","MEAN_MOTION":15.08195439,"ECCENTRICITY":0.0017401,"INCLINATION":97.8281,"RA_OF_ASC_NODE":90.6528,"ARG_OF_PERICENTER":258.7901,"MEAN_ANOMALY":101.1371,"EPHEMERIS_TYPE":0,"CLASSIFICATION_TYPE":"U","NORAD_CAT_ID":44593,"ELEMENT_SET_NO":999,"REV_AT_EPOCH":67199,"BSTAR":0.00019653,"MEAN_MOTION_DOT":2.982e-5,"MEAN_MOTION_DDOT":0}]
